ONEWEB-0033             
1 45142U 20008M   25033.36936251 -.00000241  00000+0 -72549-3 0  9992
2 45142  87.8907 135.8977 0001940 107.7608 252.3731 13.10369606242758
ONEWEB-0035             
1 45143U 20008N   25033.32454247 -.00000057  00000+0 -19823-3 0  9990
2 45143  87.8911 135.8992 0001668 104.8702 255.2610 13.10375964242472
ONEWEB-0036             
1 45144U 20008P   25033.31457115 -.00000570  00000+0 -16695-2 0  9990
2 45144  87.8910 135.8497 0001536 102.2882 257.8418 13.10374957242900
ONEWEB-0038             
1 45145U 20008Q   25033.26041708 -.00000469  00000+0 -13582-2 0  9991
2 45145  87.8891 120.7061 0002171 127.9164 232.2160 13.11416811244801
ONEWEB-0039             
1 45146U 20008R   25033.29631965 -.00000326  00000+0 -96887-3 0  9997
2 45146  87.8911 135.8746 0001237 125.3259 234.7984 13.10370282242697
ONEWEB-0040             
1 45147U 20008S   25033.28968303 -.00000031  00000+0 -12557-3 0  9991
2 45147  87.8915 135.8922 0001805 108.4769 251.6554 13.10368688242392
ONEWEB-0043             
1 45149U 20008U   25033.29134389 -.00000106  00000+0 -34055-3 0  9993
2 45149  87.8911 135.8861 0001270 109.4440 250.6825 13.10370416242713
ONEWEB-0044             
1 45150U 20008V   25033.31955716 -.00000445  00000+0 -13118-2 0  9995
2 45150  87.8912 135.8730 0001407 107.0227 253.1055 13.10375580243014
